<?xml version="1.0" encoding="UTF-8"?>
<ndm xmlns:xsi="http://www.w3.org/2001/XMLSchema-instance" xsi:noNamespaceSchemaLocation="https://sanaregistry.org/r/ndmxml_unqualified/ndmxml-2.0.0-master-2.0.xsd">
<omm id="CCSDS_OMM_VERS" version="2.0">
<header><CREATION_DATE/><ORIGINATOR/></header><body><segment><metadata><OBJECT_NAME>GLOBALSTAR M024</OBJECT_NAME><OBJECT_ID>1999-043A</OBJECT_ID><CENTER_NAME>EARTH</CENTER_NAME><REF_FRAME>TEME</REF_FRAME><TIME_SYSTEM>UTC</TIME_SYSTEM><MEAN_ELEMENT_THEORY>SGP4</MEAN_ELEMENT_THEORY></metadata><data><meanElements><EPOCH>2024-05-08T13:03:57.589920</EPOCH><MEAN_MOTION>11.10160033</MEAN_MOTION><ECCENTRICITY>.0001942</ECCENTRICITY><INCLINATION>52.0007</INCLINATION><RA_OF_ASC_NODE>213.6302</RA_OF_ASC_NODE><ARG_OF_PERICENTER>163.3489</ARG_OF_PERICENTER><MEAN_ANOMALY>209.6928</MEAN_ANOMALY></meanElements><tleParameters><EPHEMERIS_TYPE>0</EPHEMERIS_TYPE><CLASSIFICATION_TYPE>U</CLASSIFICATION_TYPE><NORAD_CAT_ID>25883</NORAD_CAT_ID><ELEMENT_SET_NO>999</ELEMENT_SET_NO><REV_AT_EPOCH>6995</REV_AT_EPOCH><BSTAR>-.86684E-3</BSTAR><MEAN_MOTION_DOT>-.89E-6</MEAN_MOTION_DOT><MEAN_MOTION_DDOT>0</MEAN_MOTION_DDOT></tleParameters></data></segment></body></omm>
<omm id="CCSDS_OMM_VERS" version="2.0">
<header><CREATION_DATE/><ORIGINATOR/></header><body><segment><metadata><OBJECT_NAME>GLOBALSTAR M027</OBJECT_NAME><OBJECT_ID>1999-043B</OBJECT_ID><CENTER_NAME>EARTH</CENTER_NAME><REF_FRAME>TEME</REF_FRAME><TIME_SYSTEM>UTC</TIME_SYSTEM><MEAN_ELEMENT_THEORY>SGP4</MEAN_ELEMENT_THEORY></metadata><data><meanElements><EPOCH>2024-05-07T17:28:43.259808</EPOCH><MEAN_MOTION>11.04367849</MEAN_MOTION><ECCENTRICITY>.0021689</ECCENTRICITY><INCLINATION>52.0215</INCLINATION><RA_OF_ASC_NODE>281.9671</RA_OF_ASC_NODE><ARG_OF_PERICENTER>58.4791</ARG_OF_PERICENTER><MEAN_ANOMALY>301.8117</MEAN_ANOMALY></meanElements><tleParameters><EPHEMERIS_TYPE>0</EPHEMERIS_TYPE><CLASSIFICATION_TYPE>U</CLASSIFICATION_TYPE><NORAD_CAT_ID>25884</NORAD_CAT_ID><ELEMENT_SET_NO>999</ELEMENT_SET_NO><REV_AT_EPOCH>9644</REV_AT_EPOCH><BSTAR>-.17555E-2</BSTAR><MEAN_MOTION_DOT>-.11E-5</MEAN_MOTION_DOT><MEAN_MOTION_DDOT>0</MEAN_MOTION_DDOT></tleParameters></data></segment></body></omm>
<omm id="CCSDS_OMM_VERS" version="2.0">
<header><CREATION_DATE/><ORIGINATOR/></header><body><segment><metadata><OBJECT_NAME>GLOBALSTAR M054</OBJECT_NAME><OBJECT_ID>1999-043C</OBJECT_ID><CENTER_NAME>EARTH</CENTER_NAME><REF_FRAME>TEME</REF_FRAME><TIME_SYSTEM>UTC</TIME_SYSTEM><MEAN_ELEMENT_THEORY>SGP4</MEAN_ELEMENT_THEORY></metadata><data><meanElements><EPOCH>2024-05-08T04:45:40.341312</EPOCH><MEAN_MOTION>11.39203261</MEAN_MOTION><ECCENTRICITY>.0004532</ECCENTRICITY><INCLINATION>52.0108</INCLINATION><RA_OF_ASC_NODE>116.1788</RA_OF_ASC_NODE><ARG_OF_PERICENTER>205.3361</ARG_OF_PERICENTER><MEAN_ANOMALY>237.9891</MEAN_ANOMALY></meanElements><tleParameters><EPHEMERIS_TYPE>0</EPHEMERIS_TYPE><CLASSIFICATION_TYPE>U</CLASSIFICATION_TYPE><NORAD_CAT_ID>25885</NORAD_CAT_ID><ELEMENT_SET_NO>999</ELEMENT_SET_NO><REV_AT_EPOCH>7322</REV_AT_EPOCH><BSTAR>.52697E-4</BSTAR><MEAN_MOTION_DOT>-.69E-6</MEAN_MOTION_DOT><MEAN_MOTION_DDOT>0</MEAN_MOTION_DDOT></tleParameters></data></segment></body></omm>
<omm id="CCSDS_OMM_VERS" version="2.0">
<header><CREATION_DATE/><ORIGINATOR/></header><body><segment><metadata><OBJECT_NAME>GLOBALSTAR M053</OBJECT_NAME><OBJECT_ID>1999-043D</OBJECT_ID><CENTER_NAME>EARTH</CENTER_NAME><REF_FRAME>TEME</REF_FRAME><TIME_SYSTEM>UTC</TIME_SYSTEM><MEAN_ELEMENT_THEORY>SGP4</MEAN_ELEMENT_THEORY></metadata><data><meanElements><EPOCH>2024-05-07T21:26:55.360320</EPOCH><MEAN_MOTION>11.27654760</MEAN_MOTION><ECCENTRICITY>.0003703</ECCENTRICITY><INCLINATION>52.0011</INCLINATION><RA_OF_ASC_NODE>41.5189</RA_OF_ASC_NODE><ARG_OF_PERICENTER>106.0899</ARG_OF_PERICENTER><MEAN_ANOMALY>331.0247</MEAN_ANOMALY></meanElements><tleParameters><EPHEMERIS_TYPE>0</EPHEMERIS_TYPE><CLASSIFICATION_TYPE>U</CLASSIFICATION_TYPE><NORAD_CAT_ID>25886</NORAD_CAT_ID><ELEMENT_SET_NO>999</ELEMENT_SET_NO><REV_AT_EPOCH>7372</REV_AT_EPOCH><BSTAR>-.69222E-4</BSTAR><MEAN_MOTION_DOT>-.71E-6</MEAN_MOTION_DOT><MEAN_MOTION_DDOT>0</MEAN_MOTION_DDOT></tleParameters></data></segment></body></omm>
<omm id="CCSDS_OMM_VERS" version="2.0">
<header><CREATION_DATE/><ORIGINATOR/></header><body><segment><metadata><OBJECT_NAME>GLOBALSTAR M058</OBJECT_NAME><OBJECT_ID>1999-049A</OBJECT_ID><CENTER_NAME>EARTH</CENTER_NAME><REF_FRAME>TEME</REF_FRAME><TIME_SYSTEM>UTC</TIME_SYSTEM><MEAN_ELEMENT_THEORY>SGP4</MEAN_ELEMENT_THEORY></metadata><data><meanElements><EPOCH>2024-05-08T04:35:50.969760</EPOCH><MEAN_MOTION>11.93176899</MEAN_MOTION><ECCENTRICITY>.0002254</ECCENTRICITY><INCLINATION>51.9916</INCLINATION><RA_OF_ASC_NODE>110.5971</RA_OF_ASC_NODE><ARG_OF_PERICENTER>222.9988</ARG_OF_PERICENTER><MEAN_ANOMALY>137.0671</MEAN_ANOMALY></meanElements><tleParameters><EPHEMERIS_TYPE>0</EPHEMERIS_TYPE><CLASSIFICATION_TYPE>U</CLASSIFICATION_TYPE><NORAD_CAT_ID>25907</NORAD_CAT_ID><ELEMENT_SET_NO>999</ELEMENT_SET_NO><REV_AT_EPOCH>10440</REV_AT_EPOCH><BSTAR>.16053E-3</BSTAR><MEAN_MOTION_DOT>-.72E-6</MEAN_MOTION_DOT><MEAN_MOTION_DDOT>0</MEAN_MOTION_DDOT></tleParameters></data></segment></body></omm>
<omm id="CCSDS_OMM_VERS" version="2.0">
<header><CREATION_DATE/><ORIGINATOR/></header><body><segment><metadata><OBJECT_NAME>GLOBALSTAR M050</OBJECT_NAME><OBJECT_ID>1999-049B</OBJECT_ID><CENTER_NAME>EARTH</CENTER_NAME><REF_FRAME>TEME</REF_FRAME><TIME_SYSTEM>UTC</TIME_SYSTEM><MEAN_ELEMENT_THEORY>SGP4</MEAN_ELEMENT_THEORY></metadata><data><meanElements><EPOCH>2024-05-07T18:36:42.793056</EPOCH><MEAN_MOTION>12.07433230</MEAN_MOTION><ECCENTRICITY>.0009138</ECCENTRICITY><INCLINATION>51.9961</INCLINATION><RA_OF_ASC_NODE>149.6746</RA_OF_ASC_NODE><ARG_OF_PERICENTER>303.3402</ARG_OF_PERICENTER><MEAN_ANOMALY>228.1859</MEAN_ANOMALY></meanElements><tleParameters><EPHEMERIS_TYPE>0</EPHEMERIS_TYPE><CLASSIFICATION_TYPE>U</CLASSIFICATION_TYPE><NORAD_CAT_ID>25908</NORAD_CAT_ID><ELEMENT_SET_NO>999</ELEMENT_SET_NO><REV_AT_EPOCH>9921</REV_AT_EPOCH><BSTAR>-.58987E-3</BSTAR><MEAN_MOTION_DOT>-.14E-5</MEAN_MOTION_DOT><MEAN_MOTION_DDOT>0</MEAN_MOTION_DDOT></tleParameters></data></segment></body></omm>
<omm id="CCSDS_OMM_VERS" version="2.0">
<header><CREATION_DATE/><ORIGINATOR/></header><body><segment><metadata><OBJECT_NAME>GLOBALSTAR M033</OBJECT_NAME><OBJECT_ID>1999-049C</OBJECT_ID><CENTER_NAME>EARTH</CENTER_NAME><REF_FRAME>TEME</REF_FRAME><TIME_SYSTEM>UTC</TIME_SYSTEM><MEAN_ELEMENT_THEORY>SGP4</MEAN_ELEMENT_THEORY></metadata><data><meanElements><EPOCH>2024-05-08T03:23:45.015936</EPOCH><MEAN_MOTION>12.20273150</MEAN_MOTION><ECCENTRICITY>.0011742</ECCENTRICITY><INCLINATION>51.9932</INCLINATION><RA_OF_ASC_NODE>48.4788</RA_OF_ASC_NODE><ARG_OF_PERICENTER>153.5590</ARG_OF_PERICENTER><MEAN_ANOMALY>206.5859</MEAN_ANOMALY></meanElements><tleParameters><EPHEMERIS_TYPE>0</EPHEMERIS_TYPE><CLASSIFICATION_TYPE>U</CLASSIFICATION_TYPE><NORAD_CAT_ID>25909</NORAD_CAT_ID><ELEMENT_SET_NO>999</ELEMENT_SET_NO><REV_AT_EPOCH>11901</REV_AT_EPOCH><BSTAR>.93014E-3</BSTAR><MEAN_MOTION_DOT>.5E-7</MEAN_MOTION_DOT><MEAN_MOTION_DDOT>0</MEAN_MOTION_DDOT></tleParameters></data></segment></body></omm>
<omm id="CCSDS_OMM_VERS" version="2.0">
<header><CREATION_DATE/><ORIGINATOR/></header><body><segment><metadata><OBJECT_NAME>GLOBALSTAR M055</OBJECT_NAME><OBJECT_ID>1999-049D</OBJECT_ID><CENTER_NAME>EARTH</CENTER_NAME><REF_FRAME>TEME</REF_FRAME><TIME_SYSTEM>UTC</TIME_SYSTEM><MEAN_ELEMENT_THEORY>SGP4</MEAN_ELEMENT_THEORY></metadata><data><meanElements><EPOCH>2024-05-07T13:30:57.251232</EPOCH><MEAN_MOTION>12.29400633</MEAN_MOTION><ECCENTRICITY>.0007396</ECCENTRICITY><INCLINATION>52.0020</INCLINATION><RA_OF_ASC_NODE>80.5922</RA_OF_ASC_NODE><ARG_OF_PERICENTER>11.1744</ARG_OF_PERICENTER><MEAN_ANOMALY>348.9271</MEAN_ANOMALY></meanElements><tleParameters><EPHEMERIS_TYPE>0</EPHEMERIS_TYPE><CLASSIFICATION_TYPE>U</CLASSIFICATION_TYPE><NORAD_CAT_ID>25910</NORAD_CAT_ID><ELEMENT_SET_NO>999</ELEMENT_SET_NO><REV_AT_EPOCH>11861</REV_AT_EPOCH><BSTAR>.85113E-4</BSTAR><MEAN_MOTION_DOT>-.84E-6</MEAN_MOTION_DOT><MEAN_MOTION_DDOT>0</MEAN_MOTION_DDOT></tleParameters></data></segment></body></omm>

</ndm>
