GLOBALSTAR M024         
1 25883U 99043A   24129.54441655 -.00000089  00000+0 -86684-3 0  9996
2 25883  52.0007 213.6302 0001942 163.3489 209.6928 11.10160033 69950
GLOBALSTAR M027         
1 25884U 99043B   24128.72827847 -.00000110  00000+0 -17555-2 0  9992
2 25884  52.0215 281.9671 0021689  58.4791 301.8117 11.04367849 96445
GLOBALSTAR M054         
1 25885U 99043C   24129.19838358 -.00000069  00000+0  52697-4 0  9994
2 25885  52.0108 116.1788 0004532 205.3361 237.9891 11.39203261 73223
GLOBALSTAR M053         
1 25886U 99043D   24128.89369630 -.00000071  00000+0 -69222-4 0  9999
2 25886  52.0011  41.5189 0003703 106.0899 331.0247 11.27654760 73722
GLOBALSTAR M058         
1 25907U 99049A   24129.19156215 -.00000072  00000+0  16053-3 0  9999
2 25907  51.9916 110.5971 0002254 222.9988 137.0671 11.93176899104401
GLOBALSTAR M050         
1 25908U 99049B   24128.77549529 -.00000140  00000+0 -58987-3 0  9996
2 25908  51.9961 149.6746 0009138 303.3402 228.1859 12.07433230 99211
GLOBALSTAR M033         
1 25909U 99049C   24129.14149324  .00000005  00000+0  93014-3 0  9996
2 25909  51.9932  48.4788 0011742 153.5590 206.5859 12.20273150119018
GLOBALSTAR M055         
1 25910U 99049D   24128.56316263 -.00000084  00000+0  85113-4 0  9991
2 25910  52.0020  80.5922 0007396  11.1744 348.9271 12.29400633118618
